{
  "type": "FeatureCollection",
  "features": [
    {
      "type": "Feature",
      "properties": {
        "norad_id": 66488,
        "name": "STARLINK-35515",
        "group": "last-30-days",
        "lat": 1.576594782294013,
        "lon": -51.896782084668985,
        "alt_km": 414.870351575345,
        "timestamp": "2025-12-11T22:43:46.022923+00:00",
        "meta_object_name": "STARLINK-35515",
        "meta_object_id": "2025-263D",
        "meta_epoch": "2025-12-11T14:00:01.999872",
        "meta_mean_motion": 15.50617536,
        "meta_eccentricity": 0.00013101,
        "meta_inclination": 43.0004,
        "meta_ra_of_asc_node": 131.9236,
        "meta_arg_of_pericenter": 268.8663,
        "meta_mean_anomaly": 36.1115,
        "meta_ephemeris_type": 0,
        "meta_classification_type": "U",
        "meta_norad_cat_id": 66488,
        "meta_element_set_no": 999,
        "meta_rev_at_epoch": 545,
        "meta_bstar": -0.0025545831,
        "meta_mean_motion_dot": -0.00147617,
        "meta_mean_motion_ddot": 0,
        "tle_line1": "1 66488U 25263D   25345.58335648 -.00147617  00000+0 -25546-2 0  9992",
        "tle_line2": "2 66488  43.0004 131.9236 0001310 268.8663  36.1115 15.50617536  5454"
      },
      "geometry": {
        "type": "Point",
        "coordinates": [
          -51.896782084668985,
          1.576594782294013
        ]
      }
    },
    {
      "type": "Feature",
      "properties": {
        "norad_id": 66489,
        "name": "STARLINK-35696",
        "group": "last-30-days",
        "lat": 0.2696121952079082,
        "lon": -50.499175677655124,
        "alt_km": 414.7348430366055,
        "timestamp": "2025-12-11T22:43:46.022940+00:00",
        "meta_object_name": "STARLINK-35696",
        "meta_object_id": "2025-263E",
        "meta_epoch": "2025-12-11T14:00:01.999872",
        "meta_mean_motion": 15.50615456,
        "meta_eccentricity": 0.00014722,
        "meta_inclination": 43.0003,
        "meta_ra_of_asc_node": 131.918,
        "meta_arg_of_pericenter": 254.3189,
        "meta_mean_anomaly": 52.5734,
        "meta_ephemeris_type": 0,
        "meta_classification_type": "U",
        "meta_norad_cat_id": 66489,
        "meta_element_set_no": 999,
        "meta_rev_at_epoch": 545,
        "meta_bstar": -0.0023097936,
        "meta_mean_motion_dot": -0.00133731,
        "meta_mean_motion_ddot": 0,
        "tle_line1": "1 66489U 25263E   25345.58335648 -.00133731  00000+0 -23098-2 0  9995",
        "tle_line2": "2 66489  43.0003 131.9180 0001472 254.3189  52.5734 15.50615456  5452"
      },
      "geometry": {
        "type": "Point",
        "coordinates": [
          -50.499175677655124,
          0.2696121952079082
        ]
      }
    },
    {
      "type": "Feature",
      "properties": {
        "norad_id": 66490,
        "name": "STARLINK-35693",
        "group": "last-30-days",
        "lat": 19.169909076880426,
        "lon": -72.0435095272381,
        "alt_km": 437.80535969429,
        "timestamp": "2025-12-11T22:43:46.022950+00:00",
        "meta_object_name": "STARLINK-35693",
        "meta_object_id": "2025-263F",
        "meta_epoch": "2025-12-11T14:00:01.999872",
        "meta_mean_motion": 15.4341361,
        "meta_eccentricity": 0.00013664,
        "meta_inclination": 43.0011,
        "meta_ra_of_asc_node": 131.9635,
        "meta_arg_of_pericenter": 273.139,
        "meta_mean_anomaly": 15.674,
        "meta_ephemeris_type": 0,
        "meta_classification_type": "U",
        "meta_norad_cat_id": 66490,
        "meta_element_set_no": 999,
        "meta_rev_at_epoch": 545,
        "meta_bstar": -0.04273917,
        "meta_mean_motion_dot": -0.01767203,
        "meta_mean_motion_ddot": 0,
        "tle_line1": "1 66490U 25263F   25345.58335648 -.01767203  00000+0 -42739-1 0  9997",
        "tle_line2": "2 66490  43.0011 131.9635 0001366 273.1390  15.6740 15.43413610  5450"
      },
      "geometry": {
        "type": "Point",
        "coordinates": [
          -72.0435095272381,
          19.169909076880426
        ]
      }
    },
    {
      "type": "Feature",
      "properties": {
        "norad_id": 66491,
        "name": "STARLINK-35663",
        "group": "last-30-days",
        "lat": -3.5746111110592227,
        "lon": -46.380435968926086,
        "alt_km": 416.1616905464434,
        "timestamp": "2025-12-11T22:43:46.022961+00:00",
        "meta_object_name": "STARLINK-35663",
        "meta_object_id": "2025-263G",
        "meta_epoch": "2025-12-11T14:00:01.999872",
        "meta_mean_motion": 15.50467701,
        "meta_eccentricity": 0.00013998,
        "meta_inclination": 43.0004,
        "meta_ra_of_asc_node": 131.9033,
        "meta_arg_of_pericenter": 321.135,
        "meta_mean_anomaly": 351.4949,
        "meta_ephemeris_type": 0,
        "meta_classification_type": "U",
        "meta_norad_cat_id": 66491,
        "meta_element_set_no": 999,
        "meta_rev_at_epoch": 545,
        "meta_bstar": 0.0010216508,
        "meta_mean_motion_dot": 0.00059815,
        "meta_mean_motion_ddot": 0,
        "tle_line1": "1 66491U 25263G   25345.58335648  .00059815  00000+0  10217-2 0  9995",
        "tle_line2": "2 66491  43.0004 131.9033 0001399 321.1350 351.4949 15.50467701  5451"
      },
      "geometry": {
        "type": "Point",
        "coordinates": [
          -46.380435968926086,
          -3.5746111110592227
        ]
      }
    },
    {
      "type": "Feature",
      "properties": {
        "norad_id": 66492,
        "name": "STARLINK-35673",
        "group": "last-30-days",
        "lat": 33.090594508836745,
        "lon": -94.4539341430256,
        "alt_km": 439.71799606056356,
        "timestamp": "2025-12-11T22:43:46.022973+00:00",
        "meta_object_name": "STARLINK-35673",
        "meta_object_id": "2025-263H",
        "meta_epoch": "2025-12-11T14:00:01.999872",
        "meta_mean_motion": 15.40660283,
        "meta_eccentricity": 0.00014827,
        "meta_inclination": 43.0004,
        "meta_ra_of_asc_node": 132.0135,
        "meta_arg_of_pericenter": 276.9576,
        "meta_mean_anomaly": 350.1409,
        "meta_ephemeris_type": 0,
        "meta_classification_type": "U",
        "meta_norad_cat_id": 66492,
        "meta_element_set_no": 999,
        "meta_rev_at_epoch": 545,
        "meta_bstar": 0.00074648988,
        "meta_mean_motion_dot": 0.00030965,
        "meta_mean_motion_ddot": 0,
        "tle_line1": "1 66492U 25263H   25345.58335648  .00030965  00000+0  74649-3 0  9991",
        "tle_line2": "2 66492  43.0004 132.0135 0001482 276.9576 350.1409 15.40660283  5453"
      },
      "geometry": {
        "type": "Point",
        "coordinates": [
          -94.4539341430256,
          33.090594508836745
        ]
      }
    },
    {
      "type": "Feature",
      "properties": {
        "norad_id": 66493,
        "name": "STARLINK-35597",
        "group": "last-30-days",
        "lat": -6.252925290789466,
        "lon": -43.48167860733808,
        "alt_km": 415.6252895628977,
        "timestamp": "2025-12-11T22:43:46.022984+00:00",
        "meta_object_name": "STARLINK-35597",
        "meta_object_id": "2025-263J",
        "meta_epoch": "2025-12-11T14:00:01.999872",
        "meta_mean_motion": 15.50623803,
        "meta_eccentricity": 0.00013786,
        "meta_inclination": 43.0003,
        "meta_ra_of_asc_node": 131.8936,
        "meta_arg_of_pericenter": 265.6363,
        "meta_mean_anomaly": 50.8461,
        "meta_ephemeris_type": 0,
        "meta_classification_type": "U",
        "meta_norad_cat_id": 66493,
        "meta_element_set_no": 999,
        "meta_rev_at_epoch": 545,
        "meta_bstar": -0.0027844014,
        "meta_mean_motion_dot": -0.00160638,
        "meta_mean_motion_ddot": 0,
        "tle_line1": "1 66493U 25263J   25345.58335648 -.00160638  00000+0 -27844-2 0  9999",
        "tle_line2": "2 66493  43.0003 131.8936 0001378 265.6363  50.8461 15.50623803  5452"
      },
      "geometry": {
        "type": "Point",
        "coordinates": [
          -43.48167860733808,
          -6.252925290789466
        ]
      }
    },
    {
      "type": "Feature",
      "properties": {
        "norad_id": 66494,
        "name": "STARLINK-35689",
        "group": "last-30-days",
        "lat": -2.3513398403742225,
        "lon": -47.693791161321435,
        "alt_km": 414.8241713879934,
        "timestamp": "2025-12-11T22:43:46.022994+00:00",
        "meta_object_name": "STARLINK-35689",
        "meta_object_id": "2025-263K",
        "meta_epoch": "2025-12-11T14:00:01.999872",
        "meta_mean_motion": 15.50613785,
        "meta_eccentricity": 0.00015716,
        "meta_inclination": 43.0003,
        "meta_ra_of_asc_node": 131.9086,
        "meta_arg_of_pericenter": 252.0455,
        "meta_mean_anomaly": 58.6666,
        "meta_ephemeris_type": 0,
        "meta_classification_type": "U",
        "meta_norad_cat_id": 66494,
        "meta_element_set_no": 999,
        "meta_rev_at_epoch": 545,
        "meta_bstar": -0.0012978689,
        "meta_mean_motion_dot": -0.00075842,
        "meta_mean_motion_ddot": 0,
        "tle_line1": "1 66494U 25263K   25345.58335648 -.00075842  00000+0 -12979-2 0  9995",
        "tle_line2": "2 66494  43.0003 131.9086 0001571 252.0455  58.6666 15.50613785  5458"
      },
      "geometry": {
        "type": "Point",
        "coordinates": [
          -47.693791161321435,
          -2.3513398403742225
        ]
      }
    }
  ]
}